SAUDISAT 2              
1 28371U 04025F   26161.22872160  .00000235  00000+0  63648-4 0  9996
2 28371  98.5506 161.0308 0023888 320.5054  39.4402 14.56679788164737
COSMOS 2407             
1 28380U 04028A   26161.17115031  .00000050  00000+0  36039-4 0  9999
2 28380  82.9609  80.0302 0037787 272.3129 205.5452 13.76334254 98916
COSMOS 2414             
1 28521U 05002A   26161.18351198  .00000051  00000+0  29968-4 0  9990
2 28521  82.9505  48.9446 0039988 351.4769   8.5710 13.87926030 82848
INMARSAT 4-F1           
1 28628U 05009A   26160.87621304  .00000047  00000+0  00000+0 0  9995
2 28628   5.1569  42.7397 0002690  40.8235 308.2419  1.00271875 77591
SJ-7                    
1 28737U 05024A   26161.05359797  .00007481  00000+0  33506-3 0  9998
2 28737  97.7292 190.9657 0016995  61.1007 299.1930 15.21433771146948
CUBESAT XI-V            
1 28895U 05043F   26160.38487946  .00001300  00000+0  21228-3 0  9999
2 28895  98.2976 315.8433 0013165 226.6554 133.3557 14.72610450100602
HINODE (SOLAR-B)        
1 29479U 06041A   26161.30403800  .00000631  00000+0  11684-3 0  9998
2 29479  98.0549 177.5580 0016297 313.4054  46.5794 14.68613539 53869
SHIJIAN-6 02B (SJ-6 02B)
1 29506U 06046B   26161.28171090  .00001169  00000+0  95233-4 0  9994
2 29506  97.7165 190.3831 0014898  80.3037 279.9869 15.01359244 69701
DMSP 5D-3 F17 (USA 191) 
1 29522U 06050A   26161.31069684  .00000016  00000+0  30478-4 0  9996
2 29522  98.7378 168.0214 0011310  76.9930 283.2506 14.14992111 11456
LAPAN-TUBSAT            
1 29709U 07001A   26161.25117609  .00000076  00000+0  15282-4 0  9996
2 29709  98.1347 160.3191 0011333 202.6093 157.4624 14.85943106 50123
HAIYANG-1B              
1 31113U 07010A   26161.22270337  .00000080  00000+0  46156-4 0  9992
2 31113  98.3491 143.3381 0012612 217.9869 142.0427 14.31025139999637
COSMO-SKYMED 2          
1 32376U 07059A   26161.27496049  .00000342  00000+0  49473-4 0  9998
2 32376  97.8885 344.9734 0001400  85.6888 274.4485 14.82149148   983
CARTOSAT-2A             
1 32783U 08021A   26161.28213363  .00000202  00000+0  33925-4 0  9997
2 32783  97.7637 210.2265 0012821 129.1700 231.0653 14.79226784977784
CUTE-1.7+APD II (CO-65) 
1 32785U 08021C   26161.22182481  .00005114  00000+0  32387-3 0  9996
2 32785  97.8272 142.4955 0010331  59.3713 300.8533 15.09387299984149
SEEDS II (CO-66)        
1 32791U 08021J   26160.95377475  .00017862  00000+0  57103-3 0  9997
2 32791  97.7518 158.5073 0002176  26.7954 333.3399 15.32504530986182
YUBILEINY (RS30)        
1 32953U 08025A   26161.25782866  .00000010  00000+0  25795-5 0  9990
2 32953  82.5050 359.7516 0019139 329.4928  30.5037 12.43178836818839
FENGYUN 3A              
1 32958U 08026A   26161.06945165  .00000061  00000+0  49544-4 0  9991
2 32958  98.6882 102.0358 0009288 142.4909 217.6917 14.19569727934397
HUANJING 1A (HJ-1A)     
1 33320U 08041A   26161.28866999  .00000783  00000+0  99994-4 0  9998
2 33320  97.6683 147.3943 0019331 156.4459 203.7645 14.83970310957389
HUANJING 1B (HJ-1B)     
1 33321U 08041B   26161.25462306  .00000804  00000+0  10355-3 0  9997
2 33321  97.6519 150.5541 0035421 204.0904 155.8656 14.83304637957383
SHIJIAN-6 03A (SJ-6 03A)
1 33408U 08053A   26161.32138032  .00003982  00000+0  20428-3 0  9992
2 33408  97.8417 194.4037 0012316  42.9052 317.3139 15.17097387961921
SHIJIAN-6 03B (SJ-6 03B)
1 33409U 08053B   26161.31504825  .00001558  00000+0  11605-3 0  9993
2 33409  97.8588 181.0930 0021154  66.3334 294.0108 15.04292543961719
