OBJECT_NAME,OBJECT_ID,EPOCH,MEAN_MOTION,ECCENTRICITY,INCLINATION,RA_OF_ASC_NODE,ARG_OF_PERICENTER,MEAN_ANOMALY,EPHEMERIS_TYPE,CLASSIFICATION_TYPE,NORAD_CAT_ID,ELEMENT_SET_NO,REV_AT_EPOCH,BSTAR,MEAN_MOTION_DOT,MEAN_MOTION_DDOT
SAUDISAT 2,2004-025F,2026-06-10T05:29:21.546240,14.56679788,.0023888,98.5506,161.0308,320.5054,39.4402,0,U,28371,999,16473,.63647821E-4,.235E-5,0
COSMOS 2407,2004-028A,2026-06-10T04:06:27.386784,13.76334254,.00377873,82.9609,80.0302,272.3129,205.5452,0,U,28380,999,9891,.3603872E-4,.5E-6,0
COSMOS 2414,2005-002A,2026-06-10T04:24:15.435072,13.87926030,.00399886,82.9505,48.9446,351.4769,8.5710,0,U,28521,999,8284,.29967811E-4,.51E-6,0
INMARSAT 4-F1,2005-009A,2026-06-09T21:01:44.806656,1.00271875,.00026905,5.1569,42.7397,40.8235,308.2419,0,U,28628,999,7759,0,.47E-6,0
SJ-7,2005-024A,2026-06-10T01:17:10.864608,15.21433771,.00169957,97.7292,190.9657,61.1007,299.1930,0,U,28737,999,14694,.33505726E-3,.7481E-4,0
CUBESAT XI-V,2005-043F,2026-06-09T09:14:13.585344,14.72610450,.00131651,98.2976,315.8433,226.6554,133.3557,0,U,28895,999,10060,.21228388E-3,.13E-4,0
HINODE (SOLAR-B),2006-041A,2026-06-10T07:17:48.883200,14.68613539,.00162971,98.0549,177.5580,313.4054,46.5794,0,U,29479,999,5386,.11684191E-3,.631E-5,0
SHIJIAN-6 02B (SJ-6 02B),2006-046B,2026-06-10T06:45:39.821760,15.01359244,.0014898,97.7165,190.3831,80.3037,279.9869,0,U,29506,999,6970,.952328E-4,.1169E-4,0
DMSP 5D-3 F17 (USA 191),2006-050A,2026-06-10T07:27:24.206976,14.14992111,.00113104,98.7378,168.0214,76.9930,283.2506,0,U,29522,999,1145,.30477951E-4,.16E-6,0
LAPAN-TUBSAT,2007-001A,2026-06-10T06:01:41.614176,14.85943106,.00113336,98.1347,160.3191,202.6093,157.4624,0,U,29709,999,5012,.15282249E-4,.76E-6,0
HAIYANG-1B,2007-010A,2026-06-10T05:20:41.571168,14.31025139,.00126126,98.3491,143.3381,217.9869,142.0427,0,U,31113,999,99963,.46155573E-4,.8E-6,0
COSMO-SKYMED 2,2007-059A,2026-06-10T06:35:56.586336,14.82149148,.00014,97.8885,344.9734,85.6888,274.4485,0,U,32376,999,98,.49472761E-4,.342E-5,0
CARTOSAT-2A,2008-021A,2026-06-10T06:46:16.345632,14.79226784,.00128212,97.7637,210.2265,129.1700,231.0653,0,U,32783,999,97778,.33925081E-4,.202E-5,0
CUTE-1.7+APD II (CO-65),2008-021C,2026-06-10T05:19:25.663584,15.09387299,.00103317,97.8272,142.4955,59.3713,300.8533,0,U,32785,999,98414,.32386518E-3,.5114E-4,0
SEEDS II (CO-66),2008-021J,2026-06-09T22:53:26.138400,15.32504530,.00021769,97.7518,158.5073,26.7954,333.3399,0,U,32791,999,98618,.57102739E-3,.17862E-3,0
YUBILEINY (RS30),2008-025A,2026-06-10T06:11:16.396224,12.43178836,.00191396,82.5050,359.7516,329.4928,30.5037,0,U,32953,999,81883,.2579538E-5,.1E-6,0
FENGYUN 3A,2008-026A,2026-06-10T01:40:00.622560,14.19569727,.00092884,98.6882,102.0358,142.4909,217.6917,0,U,32958,999,93439,.49543621E-4,.61E-6,0
HUANJING 1A (HJ-1A),2008-041A,2026-06-10T06:55:41.087136,14.83970310,.0019331,97.6683,147.3943,156.4459,203.7645,0,U,33320,999,95738,.99993737E-4,.783E-5,0
HUANJING 1B (HJ-1B),2008-041B,2026-06-10T06:06:39.432384,14.83304637,.00354219,97.6519,150.5541,204.0904,155.8656,0,U,33321,999,95738,.10354924E-3,.804E-5,0
SHIJIAN-6 03A (SJ-6 03A),2008-053A,2026-06-10T07:42:47.259648,15.17097387,.00123168,97.8417,194.4037,42.9052,317.3139,0,U,33408,999,96192,.20427862E-3,.3982E-4,0
SHIJIAN-6 03B (SJ-6 03B),2008-053B,2026-06-10T07:33:40.168800,15.04292543,.0021154,97.8588,181.0930,66.3334,294.0108,0,U,33409,999,96171,.11604775E-3,.1558E-4,0
